format  = 'OEF2.0'       ! file format
rectype = 'ML'           ! record type (1L/ML)
refsys  = ECLM J2000     ! default reference system
END_OF_HEADER
1995CS
! Equinoctial elements: a, e*sin(LP), e*cos(LP), tan(i/2)*sin(LN), tan(i/2)*cos(LN), mean long.
 EQU   1.9277038542783231E+00   0.361283850386369   0.682977234761313    0.015902631533364   -0.016133025598442 342.9106440652652
 MJD     57400.000000000 TDT
 MAG  25.472  0.150
! Non-grav parameters: model used, actual number in use, dimension
 LSP   0  0    6
! RMS    1.47599E-02   1.65294E-03   3.51667E-03   1.55440E-04   8.45845E-05   4.39582E+01
! EIG   1.16635E-09   3.10204E-08   1.49823E-07   2.19836E-06   3.15398E-05   7.67368E-01
! WEA   0.01923   0.00215   0.00458  -0.00020  -0.00011  -0.99980
 COV   2.178560603990515E-04  2.439528083800370E-05  5.190476242333694E-05
 COV  -2.294105033125824E-06 -1.248104602808726E-06 -6.488212708362716E-01
 COV   2.732211650761303E-06  5.811741113240040E-06 -2.569166425788992E-07
 COV  -1.397343033536308E-07 -7.265421733840351E-02  1.236698455735504E-05
 COV  -5.465488069448468E-07 -2.973936151025473E-07 -1.545834017212100E-01
 COV   2.416153029818097E-08  1.313907975032883E-08  6.832324394653984E-03
 COV   7.154537747539576E-09  3.717122859969564E-03  1.932326524034176E+03
 NOR   6.845184567521752E+17  1.684191691757225E+16  4.900759700786190E+16
 NOR  -1.981828201755774E+14 -2.144053487869436E+15  2.344007860444556E+14
 NOR   4.383730364181675E+14  1.228127422417416E+15 -1.005379284012861E+12
 NOR  -4.944365846505847E+13  5.769874925848254E+12  3.529471966986484E+15
 NOR  -9.962842346192387E+12 -1.497962316340027E+14  1.678423510097765E+13
 NOR   5.355375556426646E+14  5.198546506424907E+14 -7.027264417913824E+10
 NOR   5.106044098588839E+14 -7.365761362440885E+11  8.026656050663071E+10
